<?xml version="1.0" encoding="UTF-8"?>
<ndm xmlns:xsi="http://www.w3.org/2001/XMLSchema-instance" xsi:noNamespaceSchemaLocation="https://sanaregistry.org/r/ndmxml_unqualified/ndmxml-2.0.0-master-2.0.xsd">
<omm id="CCSDS_OMM_VERS" version="2.0">
<header><CREATION_DATE/><ORIGINATOR/></header><body><segment><metadata><OBJECT_NAME>KUIPER-00035</OBJECT_NAME><OBJECT_ID>2025-088AA</OBJECT_ID><CENTER_NAME>EARTH</CENTER_NAME><REF_FRAME>TEME</REF_FRAME><TIME_SYSTEM>UTC</TIME_SYSTEM><MEAN_ELEMENT_THEORY>SGP4</MEAN_ELEMENT_THEORY></metadata><data><meanElements><EPOCH>2025-11-18T22:59:56.176512</EPOCH><MEAN_MOTION>14.79950970</MEAN_MOTION><ECCENTRICITY>.00064351</ECCENTRICITY><INCLINATION>51.9010</INCLINATION><RA_OF_ASC_NODE>243.7637</RA_OF_ASC_NODE><ARG_OF_PERICENTER>60.9544</ARG_OF_PERICENTER><MEAN_ANOMALY>299.2062</MEAN_ANOMALY></meanElements><tleParameters><EPHEMERIS_TYPE>0</EPHEMERIS_TYPE><CLASSIFICATION_TYPE>U</CLASSIFICATION_TYPE><NORAD_CAT_ID>63748</NORAD_CAT_ID><ELEMENT_SET_NO>999</ELEMENT_SET_NO><REV_AT_EPOCH>3111</REV_AT_EPOCH><BSTAR>.58558227E-3</BSTAR><MEAN_MOTION_DOT>.4247E-4</MEAN_MOTION_DOT><MEAN_MOTION_DDOT>0</MEAN_MOTION_DDOT></tleParameters></data></segment></body></omm>
<omm id="CCSDS_OMM_VERS" version="2.0">
<header><CREATION_DATE/><ORIGINATOR/></header><body><segment><metadata><OBJECT_NAME>KUIPER-00037</OBJECT_NAME><OBJECT_ID>2025-088AB</OBJECT_ID><CENTER_NAME>EARTH</CENTER_NAME><REF_FRAME>TEME</REF_FRAME><TIME_SYSTEM>UTC</TIME_SYSTEM><MEAN_ELEMENT_THEORY>SGP4</MEAN_ELEMENT_THEORY></metadata><data><meanElements><EPOCH>2025-11-18T23:00:03.173184</EPOCH><MEAN_MOTION>14.80147927</MEAN_MOTION><ECCENTRICITY>.00084642</ECCENTRICITY><INCLINATION>51.8992</INCLINATION><RA_OF_ASC_NODE>242.6971</RA_OF_ASC_NODE><ARG_OF_PERICENTER>19.2833</ARG_OF_PERICENTER><MEAN_ANOMALY>340.8449</MEAN_ANOMALY></meanElements><tleParameters><EPHEMERIS_TYPE>0</EPHEMERIS_TYPE><CLASSIFICATION_TYPE>U</CLASSIFICATION_TYPE><NORAD_CAT_ID>63749</NORAD_CAT_ID><ELEMENT_SET_NO>999</ELEMENT_SET_NO><REV_AT_EPOCH>3191</REV_AT_EPOCH><BSTAR>.47942642E-3</BSTAR><MEAN_MOTION_DOT>.3454E-4</MEAN_MOTION_DOT><MEAN_MOTION_DDOT>0</MEAN_MOTION_DDOT></tleParameters></data></segment></body></omm>
<omm id="CCSDS_OMM_VERS" version="2.0">
<header><CREATION_DATE/><ORIGINATOR/></header><body><segment><metadata><OBJECT_NAME>KUIPER-00038</OBJECT_NAME><OBJECT_ID>2025-088AC</OBJECT_ID><CENTER_NAME>EARTH</CENTER_NAME><REF_FRAME>TEME</REF_FRAME><TIME_SYSTEM>UTC</TIME_SYSTEM><MEAN_ELEMENT_THEORY>SGP4</MEAN_ELEMENT_THEORY></metadata><data><meanElements><EPOCH>2025-11-18T18:34:03.016128</EPOCH><MEAN_MOTION>14.79911444</MEAN_MOTION><ECCENTRICITY>.00078379</ECCENTRICITY><INCLINATION>51.9028</INCLINATION><RA_OF_ASC_NODE>228.5461</RA_OF_ASC_NODE><ARG_OF_PERICENTER>67.9029</ARG_OF_PERICENTER><MEAN_ANOMALY>292.2765</MEAN_ANOMALY></meanElements><tleParameters><EPHEMERIS_TYPE>0</EPHEMERIS_TYPE><CLASSIFICATION_TYPE>U</CLASSIFICATION_TYPE><NORAD_CAT_ID>63750</NORAD_CAT_ID><ELEMENT_SET_NO>999</ELEMENT_SET_NO><REV_AT_EPOCH>3109</REV_AT_EPOCH><BSTAR>-.78332903E-3</BSTAR><MEAN_MOTION_DOT>-.6189E-4</MEAN_MOTION_DOT><MEAN_MOTION_DDOT>0</MEAN_MOTION_DDOT></tleParameters></data></segment></body></omm>
<omm id="CCSDS_OMM_VERS" version="2.0">
<header><CREATION_DATE/><ORIGINATOR/></header><body><segment><metadata><OBJECT_NAME>KUIPER-00039</OBJECT_NAME><OBJECT_ID>2025-134A</OBJECT_ID><CENTER_NAME>EARTH</CENTER_NAME><REF_FRAME>TEME</REF_FRAME><TIME_SYSTEM>UTC</TIME_SYSTEM><MEAN_ELEMENT_THEORY>SGP4</MEAN_ELEMENT_THEORY></metadata><data><meanElements><EPOCH>2025-11-18T13:01:36.355296</EPOCH><MEAN_MOTION>14.80101635</MEAN_MOTION><ECCENTRICITY>.00113329</ECCENTRICITY><INCLINATION>51.9019</INCLINATION><RA_OF_ASC_NODE>4.5612</RA_OF_ASC_NODE><ARG_OF_PERICENTER>285.9122</ARG_OF_PERICENTER><MEAN_ANOMALY>74.0592</MEAN_ANOMALY></meanElements><tleParameters><EPHEMERIS_TYPE>0</EPHEMERIS_TYPE><CLASSIFICATION_TYPE>U</CLASSIFICATION_TYPE><NORAD_CAT_ID>64500</NORAD_CAT_ID><ELEMENT_SET_NO>999</ELEMENT_SET_NO><REV_AT_EPOCH>2361</REV_AT_EPOCH><BSTAR>.64319656E-3</BSTAR><MEAN_MOTION_DOT>.4707E-4</MEAN_MOTION_DOT><MEAN_MOTION_DDOT>0</MEAN_MOTION_DDOT></tleParameters></data></segment></body></omm>
<omm id="CCSDS_OMM_VERS" version="2.0">
<header><CREATION_DATE/><ORIGINATOR/></header><body><segment><metadata><OBJECT_NAME>KUIPER-00040</OBJECT_NAME><OBJECT_ID>2025-134B</OBJECT_ID><CENTER_NAME>EARTH</CENTER_NAME><REF_FRAME>TEME</REF_FRAME><TIME_SYSTEM>UTC</TIME_SYSTEM><MEAN_ELEMENT_THEORY>SGP4</MEAN_ELEMENT_THEORY></metadata><data><meanElements><EPOCH>2025-11-18T20:51:07.970400</EPOCH><MEAN_MOTION>14.79918278</MEAN_MOTION><ECCENTRICITY>.00165617</ECCENTRICITY><INCLINATION>51.9014</INCLINATION><RA_OF_ASC_NODE>14.2885</RA_OF_ASC_NODE><ARG_OF_PERICENTER>261.4899</ARG_OF_PERICENTER><MEAN_ANOMALY>98.4186</MEAN_ANOMALY></meanElements><tleParameters><EPHEMERIS_TYPE>0</EPHEMERIS_TYPE><CLASSIFICATION_TYPE>U</CLASSIFICATION_TYPE><NORAD_CAT_ID>64501</NORAD_CAT_ID><ELEMENT_SET_NO>999</ELEMENT_SET_NO><REV_AT_EPOCH>2350</REV_AT_EPOCH><BSTAR>.79730227E-3</BSTAR><MEAN_MOTION_DOT>.587E-4</MEAN_MOTION_DOT><MEAN_MOTION_DDOT>0</MEAN_MOTION_DDOT></tleParameters></data></segment></body></omm>
<omm id="CCSDS_OMM_VERS" version="2.0">
<header><CREATION_DATE/><ORIGINATOR/></header><body><segment><metadata><OBJECT_NAME>KUIPER-00041</OBJECT_NAME><OBJECT_ID>2025-134C</OBJECT_ID><CENTER_NAME>EARTH</CENTER_NAME><REF_FRAME>TEME</REF_FRAME><TIME_SYSTEM>UTC</TIME_SYSTEM><MEAN_ELEMENT_THEORY>SGP4</MEAN_ELEMENT_THEORY></metadata><data><meanElements><EPOCH>2025-11-18T22:26:47.799744</EPOCH><MEAN_MOTION>14.79914693</MEAN_MOTION><ECCENTRICITY>.00144146</ECCENTRICITY><INCLINATION>51.9010</INCLINATION><RA_OF_ASC_NODE>15.3491</RA_OF_ASC_NODE><ARG_OF_PERICENTER>258.1357</ARG_OF_PERICENTER><MEAN_ANOMALY>101.7989</MEAN_ANOMALY></meanElements><tleParameters><EPHEMERIS_TYPE>0</EPHEMERIS_TYPE><CLASSIFICATION_TYPE>U</CLASSIFICATION_TYPE><NORAD_CAT_ID>64502</NORAD_CAT_ID><ELEMENT_SET_NO>999</ELEMENT_SET_NO><REV_AT_EPOCH>2349</REV_AT_EPOCH><BSTAR>-.19623621E-2</BSTAR><MEAN_MOTION_DOT>-.15171E-3</MEAN_MOTION_DOT><MEAN_MOTION_DDOT>0</MEAN_MOTION_DDOT></tleParameters></data></segment></body></omm>
<omm id="CCSDS_OMM_VERS" version="2.0">
<header><CREATION_DATE/><ORIGINATOR/></header><body><segment><metadata><OBJECT_NAME>KUIPER-00042</OBJECT_NAME><OBJECT_ID>2025-134D</OBJECT_ID><CENTER_NAME>EARTH</CENTER_NAME><REF_FRAME>TEME</REF_FRAME><TIME_SYSTEM>UTC</TIME_SYSTEM><MEAN_ELEMENT_THEORY>SGP4</MEAN_ELEMENT_THEORY></metadata><data><meanElements><EPOCH>2025-11-18T20:53:51.893664</EPOCH><MEAN_MOTION>14.80092735</MEAN_MOTION><ECCENTRICITY>.00119408</ECCENTRICITY><INCLINATION>51.9020</INCLINATION><RA_OF_ASC_NODE>11.6278</RA_OF_ASC_NODE><ARG_OF_PERICENTER>267.3239</ARG_OF_PERICENTER><MEAN_ANOMALY>92.6356</MEAN_ANOMALY></meanElements><tleParameters><EPHEMERIS_TYPE>0</EPHEMERIS_TYPE><CLASSIFICATION_TYPE>U</CLASSIFICATION_TYPE><NORAD_CAT_ID>64503</NORAD_CAT_ID><ELEMENT_SET_NO>999</ELEMENT_SET_NO><REV_AT_EPOCH>2354</REV_AT_EPOCH><BSTAR>.53572322E-3</BSTAR><MEAN_MOTION_DOT>.3882E-4</MEAN_MOTION_DOT><MEAN_MOTION_DDOT>0</MEAN_MOTION_DDOT></tleParameters></data></segment></body></omm>
<omm id="CCSDS_OMM_VERS" version="2.0">
<header><CREATION_DATE/><ORIGINATOR/></header><body><segment><metadata><OBJECT_NAME>KUIPER-00043</OBJECT_NAME><OBJECT_ID>2025-134E</OBJECT_ID><CENTER_NAME>EARTH</CENTER_NAME><REF_FRAME>TEME</REF_FRAME><TIME_SYSTEM>UTC</TIME_SYSTEM><MEAN_ELEMENT_THEORY>SGP4</MEAN_ELEMENT_THEORY></metadata><data><meanElements><EPOCH>2025-11-18T22:43:51.682944</EPOCH><MEAN_MOTION>14.79973716</MEAN_MOTION><ECCENTRICITY>.00032319</ECCENTRICITY><INCLINATION>51.9024</INCLINATION><RA_OF_ASC_NODE>3.7403</RA_OF_ASC_NODE><ARG_OF_PERICENTER>266.2383</ARG_OF_PERICENTER><MEAN_ANOMALY>93.8210</MEAN_ANOMALY></meanElements><tleParameters><EPHEMERIS_TYPE>0</EPHEMERIS_TYPE><CLASSIFICATION_TYPE>U</CLASSIFICATION_TYPE><NORAD_CAT_ID>64504</NORAD_CAT_ID><ELEMENT_SET_NO>999</ELEMENT_SET_NO><REV_AT_EPOCH>2366</REV_AT_EPOCH><BSTAR>.77765646E-3</BSTAR><MEAN_MOTION_DOT>.5718E-4</MEAN_MOTION_DOT><MEAN_MOTION_DDOT>0</MEAN_MOTION_DDOT></tleParameters></data></segment></body></omm>

</ndm>
