KUIPER-00035            
1 63748U 25088AA  25322.95828908  .00004247  00000+0  58558-3 0  9994
2 63748  51.9010 243.7637 0006435  60.9544 299.2062 14.79950970 31111
KUIPER-00037            
1 63749U 25088AB  25322.95837006  .00003454  00000+0  47943-3 0  9999
2 63749  51.8992 242.6971 0008464  19.2833 340.8449 14.80147927 31913
KUIPER-00038            
1 63750U 25088AC  25322.77364602 -.00006189  00000+0 -78333-3 0  9995
2 63750  51.9028 228.5461 0007837  67.9029 292.2765 14.79911444 31094
KUIPER-00039            
1 64500U 25134A   25322.54278189  .00004707  00000+0  64320-3 0  9993
2 64500  51.9019   4.5612 0011332 285.9122  74.0592 14.80101635 23617
KUIPER-00040            
1 64501U 25134B   25322.86884225  .00005870  00000+0  79730-3 0  9996
2 64501  51.9014  14.2885 0016561 261.4899  98.4186 14.79918278 23506
KUIPER-00041            
1 64502U 25134C   25322.93527546 -.00015171  00000+0 -19624-2 0  9997
2 64502  51.9010  15.3491 0014414 258.1357 101.7989 14.79914693 23499
KUIPER-00042            
1 64503U 25134D   25322.87073951  .00003882  00000+0  53572-3 0  9992
2 64503  51.9020  11.6278 0011940 267.3239  92.6356 14.80092735 23543
KUIPER-00043            
1 64504U 25134E   25322.94712596  .00005718  00000+0  77766-3 0  9997
2 64504  51.9024   3.7403 0003231 266.2383  93.8210 14.79973716 23662
